start=new Date('2022-07-23T00:00:00.000Z').valueOf();
sats=[{"SEMIMAJOR_AXIS":"6925.357","PERIOD":"95.592","INCLINATION":"53.0541","ARG_OF_PERICENTER":"69.9052","REF_FRAME":"TEME","OBJECT_TYPE":"PAYLOAD","TLE_LINE1":"1 47873U 21021P   22203.80854386  .00002136  00000-0  16223-3 0  9995","TLE_LINE2":"2 47873  53.0541  93.7348 0001473  69.9052 290.2096 15.06397313 76480","EPHEMERIS_TYPE":"0","NORAD_CAT_ID":"47873","MEAN_MOTION_DDOT":"0.0000000000000","COUNTRY_CODE":"US","BSTAR":"0.00016223000000","CENTER_NAME":"EARTH","MEAN_MOTION_DOT":"0.00002136","RCS_SIZE":"LARGE","MEAN_ANOMALY":"290.2096","MEAN_MOTION":"15.06397313","SITE":"AFETR","TIME_SYSTEM":"UTC","PERIAPSIS":"546.202","APOAPSIS":"548.242","FILE":"3519932","CLASSIFICATION_TYPE":"U","ELEMENT_SET_NO":"999","ECCENTRICITY":"0.00014730","GP_ID":"208669497","MEAN_ELEMENT_THEORY":"SGP4","OBJECT_ID":"2021-021P","RA_OF_ASC_NODE":"93.7348","REV_AT_EPOCH":"7648","EPOCH":"2022-07-22T19:24:18.189504","DECAY_DATE":null,"LAUNCH_DATE":"2021-03-14","OBJECT_NAME":"STARLINK-2329"},{"INCLINATION":"53.0566","PERIOD":"95.592","SEMIMAJOR_AXIS":"6925.353","ARG_OF_PERICENTER":"67.8793","REF_FRAME":"TEME","TLE_LINE2":"2 47874  53.0566  48.9966 0001517  67.8793 292.2357 15.06398447 77116","TLE_LINE1":"1 47874U 21021Q   22203.75186998  .00001952  00000-0  14992-3 0  9993","OBJECT_TYPE":"PAYLOAD","MEAN_MOTION_DDOT":"0.0000000000000","NORAD_CAT_ID":"47874","EPHEMERIS_TYPE":"0","MEAN_MOTION_DOT":"0.00001952","CENTER_NAME":"EARTH","BSTAR":"0.00014992000000","COUNTRY_CODE":"US","MEAN_ANOMALY":"292.2357","RCS_SIZE":"LARGE","MEAN_MOTION":"15.06398447","TIME_SYSTEM":"UTC","SITE":"AFETR","PERIAPSIS":"546.168","APOAPSIS":"548.269","FILE":"3519932","GP_ID":"208669747","ECCENTRICITY":"0.00015170","ELEMENT_SET_NO":"999","CLASSIFICATION_TYPE":"U","MEAN_ELEMENT_THEORY":"SGP4","REV_AT_EPOCH":"7711","EPOCH":"2022-07-22T18:02:41.566272","RA_OF_ASC_NODE":"48.9966","OBJECT_ID":"2021-021Q","DECAY_DATE":null,"OBJECT_NAME":"STARLINK-2330","LAUNCH_DATE":"2021-03-14"},{"REF_FRAME":"TEME","ARG_OF_PERICENTER":"93.8642","PERIOD":"95.593","INCLINATION":"53.0557","SEMIMAJOR_AXIS":"6925.375","TLE_LINE1":"1 47875U 21021R   22203.46852344 -.00000403  00000-0 -81695-5 0  9995","TLE_LINE2":"2 47875  53.0557 105.2699 0001384  93.8642 266.2505 15.06391473 75825","OBJECT_TYPE":"PAYLOAD","CENTER_NAME":"EARTH","MEAN_MOTION_DOT":"-0.00000403","BSTAR":"-0.00000816950000","COUNTRY_CODE":"US","MEAN_MOTION_DDOT":"0.0000000000000","NORAD_CAT_ID":"47875","EPHEMERIS_TYPE":"0","MEAN_MOTION":"15.06391473","MEAN_ANOMALY":"266.2505","RCS_SIZE":"LARGE","PERIAPSIS":"546.281","TIME_SYSTEM":"UTC","SITE":"AFETR","ECCENTRICITY":"0.00013840","GP_ID":"208646641","CLASSIFICATION_TYPE":"U","ELEMENT_SET_NO":"999","FILE":"3519861","APOAPSIS":"548.198","EPOCH":"2022-07-22T11:14:40.425216","REV_AT_EPOCH":"7582","RA_OF_ASC_NODE":"105.2699","OBJECT_ID":"2021-021R","MEAN_ELEMENT_THEORY":"SGP4","LAUNCH_DATE":"2021-03-14","OBJECT_NAME":"STARLINK-2331","DECAY_DATE":null},{"MEAN_ELEMENT_THEORY":"SGP4","RA_OF_ASC_NODE":"103.5325","OBJECT_ID":"2021-021S","EPOCH":"2022-07-22T20:31:59.202048","REV_AT_EPOCH":"7636","DECAY_DATE":null,"LAUNCH_DATE":"2021-03-14","OBJECT_NAME":"STARLINK-2332","TIME_SYSTEM":"UTC","SITE":"AFETR","PERIAPSIS":"546.093","FILE":"3519932","APOAPSIS":"548.359","ECCENTRICITY":"0.00016360","GP_ID":"208670731","CLASSIFICATION_TYPE":"U","ELEMENT_SET_NO":"999","NORAD_CAT_ID":"47876","EPHEMERIS_TYPE":"0","MEAN_MOTION_DDOT":"0.0000000000000","BSTAR":"0.00026612000000","COUNTRY_CODE":"US","MEAN_MOTION_DOT":"0.00003684","CENTER_NAME":"EARTH","MEAN_ANOMALY":"299.9806","RCS_SIZE":"LARGE","MEAN_MOTION":"15.06395866","SEMIMAJOR_AXIS":"6925.361","PERIOD":"95.592","INCLINATION":"53.0544","ARG_OF_PERICENTER":"60.1346","REF_FRAME":"TEME","TLE_LINE1":"1 47876U 21021S   22203.85554632  .00003684  00000-0  26612-3 0  9996","TLE_LINE2":"2 47876  53.0544 103.5325 0001636  60.1346 299.9806 15.06395866 76364","OBJECT_TYPE":"PAYLOAD"},{"MEAN_ELEMENT_THEORY":"SGP4","REV_AT_EPOCH":"7625","EPOCH":"2022-07-22T04:57:49.469184","RA_OF_ASC_NODE":"106.4435","OBJECT_ID":"2021-021T","DECAY_DATE":null,"OBJECT_NAME":"STARLINK-2333","LAUNCH_DATE":"2021-03-14","TIME_SYSTEM":"UTC","SITE":"AFETR","PERIAPSIS":"546.185","APOAPSIS":"548.367","FILE":"3519932","ECCENTRICITY":"0.00015750","GP_ID":"208668997","ELEMENT_SET_NO":"999","CLASSIFICATION_TYPE":"U","MEAN_MOTION_DDOT":"0.0000000000000","NORAD_CAT_ID":"47877","EPHEMERIS_TYPE":"0","MEAN_MOTION_DOT":"-0.00004005","CENTER_NAME":"EARTH","BSTAR":"-0.00025025000000","COUNTRY_CODE":"US","MEAN_ANOMALY":"287.1761","RCS_SIZE":"LARGE","MEAN_MOTION":"15.06379708","INCLINATION":"53.0545","PERIOD":"95.593","SEMIMAJOR_AXIS":"6925.411","ARG_OF_PERICENTER":"72.9401","REF_FRAME":"TEME","TLE_LINE2":"2 47877  53.0545 106.4435 0001575  72.9401 287.1761 15.06379708 76259","TLE_LINE1":"1 47877U 21021T   22203.20682256 -.00004005  00000-0 -25025-3 0  9997","OBJECT_TYPE":"PAYLOAD"},{"RCS_SIZE":"LARGE","MEAN_ANOMALY":"299.6836","MEAN_MOTION":"15.06381899","EPHEMERIS_TYPE":"0","NORAD_CAT_ID":"47878","MEAN_MOTION_DDOT":"0.0000000000000","COUNTRY_CODE":"US","BSTAR":"0.00003595500000","MEAN_MOTION_DOT":"0.00000254","CENTER_NAME":"EARTH","OBJECT_TYPE":"PAYLOAD","TLE_LINE1":"1 47878U 21021U   22203.81499119  .00000254  00000-0  35955-4 0  9993","TLE_LINE2":"2 47878  53.0558 103.7126 0001700  60.4322 299.6836 15.06381899 76148","SEMIMAJOR_AXIS":"6925.404","PERIOD":"95.593","INCLINATION":"53.0558","REF_FRAME":"TEME","ARG_OF_PERICENTER":"60.4322","DECAY_DATE":null,"LAUNCH_DATE":"2021-03-14","OBJECT_NAME":"STARLINK-2335","MEAN_ELEMENT_THEORY":"SGP4","OBJECT_ID":"2021-021U","RA_OF_ASC_NODE":"103.7126","EPOCH":"2022-07-22T19:33:35.238816","REV_AT_EPOCH":"7614","APOAPSIS":"548.446","FILE":"3519932","ELEMENT_SET_NO":"999","CLASSIFICATION_TYPE":"U","GP_ID":"208669247","ECCENTRICITY":"0.00017000","SITE":"AFETR","TIME_SYSTEM":"UTC","PERIAPSIS":"546.092"},{"SEMIMAJOR_AXIS":"6925.383","INCLINATION":"53.0547","PERIOD":"95.593","ARG_OF_PERICENTER":"64.9943","REF_FRAME":"TEME","TLE_LINE1":"1 47879U 21021V   22203.48003774 -.00001240  00000-0 -64392-4 0  9990","TLE_LINE2":"2 47879  53.0547 120.2215 0001720  64.9943 295.1224 15.06388690 76261","OBJECT_TYPE":"PAYLOAD","NORAD_CAT_ID":"47879","EPHEMERIS_TYPE":"0","MEAN_MOTION_DDOT":"0.0000000000000","BSTAR":"-0.00006439200000","COUNTRY_CODE":"US","MEAN_MOTION_DOT":"-0.00001240","CENTER_NAME":"EARTH","MEAN_ANOMALY":"295.1224","RCS_SIZE":"LARGE","MEAN_MOTION":"15.06388690","TIME_SYSTEM":"UTC","SITE":"AFETR","PERIAPSIS":"546.057","FILE":"3519932","APOAPSIS":"548.439","ECCENTRICITY":"0.00017200","GP_ID":"208670499","CLASSIFICATION_TYPE":"U","ELEMENT_SET_NO":"999","MEAN_ELEMENT_THEORY":"SGP4","RA_OF_ASC_NODE":"120.2215","OBJECT_ID":"2021-021V","EPOCH":"2022-07-22T11:31:15.260736","REV_AT_EPOCH":"7626","DECAY_DATE":null,"OBJECT_NAME":"STARLINK-2336","LAUNCH_DATE":"2021-03-14"},{"TIME_SYSTEM":"UTC","SITE":"AFETR","PERIAPSIS":"545.958","APOAPSIS":"548.501","FILE":"3519884","ECCENTRICITY":"0.00018360","GP_ID":"208647155","ELEMENT_SET_NO":"999","CLASSIFICATION_TYPE":"U","MEAN_ELEMENT_THEORY":"SGP4","RA_OF_ASC_NODE":"115.3353","OBJECT_ID":"2021-021W","REV_AT_EPOCH":"7567","EPOCH":"2022-07-22T10:52:06.662496","DECAY_DATE":null,"OBJECT_NAME":"STARLINK-2337","LAUNCH_DATE":"2021-03-14","SEMIMAJOR_AXIS":"6925.365","INCLINATION":"53.0564","PERIOD":"95.592","ARG_OF_PERICENTER":"65.3061","REF_FRAME":"TEME","TLE_LINE2":"2 47880  53.0564 115.3353 0001836  65.3061 294.8119 15.06394733 75672","TLE_LINE1":"1 47880U 21021W   22203.45285489 -.00001282  00000-0 -67160-4 0  9996","OBJECT_TYPE":"PAYLOAD","NORAD_CAT_ID":"47880","EPHEMERIS_TYPE":"0","MEAN_MOTION_DDOT":"0.0000000000000","BSTAR":"-0.00006716000000","COUNTRY_CODE":"US","CENTER_NAME":"EARTH","MEAN_MOTION_DOT":"-0.00001282","MEAN_ANOMALY":"294.8119","RCS_SIZE":"LARGE","MEAN_MOTION":"15.06394733"},{"TLE_LINE2":"2 47881  53.0525 115.2178 0001503  83.0955 277.0205 15.06389014 75680","TLE_LINE1":"1 47881U 21021X   22203.47865783 -.00001744  00000-0 -98216-4 0  9999","OBJECT_TYPE":"PAYLOAD","ARG_OF_PERICENTER":"83.0955","REF_FRAME":"TEME","INCLINATION":"53.0525","PERIOD":"95.593","SEMIMAJOR_AXIS":"6925.382","MEAN_MOTION":"15.06389014","MEAN_ANOMALY":"277.0205","RCS_SIZE":"LARGE","CENTER_NAME":"EARTH","MEAN_MOTION_DOT":"-0.00001744","BSTAR":"-0.00009821600000","COUNTRY_CODE":"US","MEAN_MOTION_DDOT":"0.0000000000000","NORAD_CAT_ID":"47881","EPHEMERIS_TYPE":"0","GP_ID":"208647154","ECCENTRICITY":"0.00015030","ELEMENT_SET_NO":"999","CLASSIFICATION_TYPE":"U","FILE":"3519884","APOAPSIS":"548.288","PERIAPSIS":"546.206","TIME_SYSTEM":"UTC","SITE":"AFETR","OBJECT_NAME":"STARLINK-2339","LAUNCH_DATE":"2021-03-14","DECAY_DATE":null,"EPOCH":"2022-07-22T11:29:16.036512","REV_AT_EPOCH":"7568","OBJECT_ID":"2021-021X","RA_OF_ASC_NODE":"115.2178","MEAN_ELEMENT_THEORY":"SGP4"},{"MEAN_ANOMALY":"268.5957","RCS_SIZE":"LARGE","MEAN_MOTION":"15.06392646","NORAD_CAT_ID":"47882","EPHEMERIS_TYPE":"0","MEAN_MOTION_DDOT":"0.0000000000000","BSTAR":"-0.00012305000000","COUNTRY_CODE":"US","MEAN_MOTION_DOT":"-0.00002113","CENTER_NAME":"EARTH","TLE_LINE1":"1 47882U 21021Y   22203.45377042 -.00002113  00000-0 -12305-3 0  9999","TLE_LINE2":"2 47882  53.0558 105.3377 0001431  91.5196 268.5957 15.06392646 75829","OBJECT_TYPE":"PAYLOAD","SEMIMAJOR_AXIS":"6925.371","INCLINATION":"53.0558","PERIOD":"95.593","REF_FRAME":"TEME","ARG_OF_PERICENTER":"91.5196","DECAY_DATE":null,"LAUNCH_DATE":"2021-03-14","OBJECT_NAME":"STARLINK-2340","MEAN_ELEMENT_THEORY":"SGP4","RA_OF_ASC_NODE":"105.3377","OBJECT_ID":"2021-021Y","REV_AT_EPOCH":"7582","EPOCH":"2022-07-22T10:53:25.764288","FILE":"3519884","APOAPSIS":"548.227","ECCENTRICITY":"0.00014310","GP_ID":"208647148","ELEMENT_SET_NO":"999","CLASSIFICATION_TYPE":"U","TIME_SYSTEM":"UTC","SITE":"AFETR","PERIAPSIS":"546.245"}];
